{
  "type": "FeatureCollection",
  "features": [
    {
      "type": "Feature",
      "properties": {
        "norad_id": 41866,
        "name": "GOES 16",
        "group": "weather",
        "lat": 0.0053197700479883795,
        "lon": -102.0867300415609,
        "alt_km": 35773.13744807285,
        "timestamp": "2025-12-09T18:55:16.881383+00:00",
        "meta_object_name": "GOES 16",
        "meta_object_id": "2016-071A",
        "meta_epoch": "2025-12-09T12:17:01.093344",
        "meta_mean_motion": 1.0026869,
        "meta_eccentricity": 0.00032665,
        "meta_inclination": 0.0634,
        "meta_ra_of_asc_node": 105.9696,
        "meta_arg_of_pericenter": 154.5939,
        "meta_mean_anomaly": 257.5193,
        "meta_ephemeris_type": 0,
        "meta_classification_type": "U",
        "meta_norad_cat_id": 41866,
        "meta_element_set_no": 999,
        "meta_rev_at_epoch": 3320,
        "meta_bstar": 0,
        "meta_mean_motion_dot": -8.8e-07,
        "meta_mean_motion_ddot": 0,
        "tle_line1": "1 41866U 16071A   25343.51181821 -.00000088  00000+0  00000+0 0  9999",
        "tle_line2": "2 41866   0.0634 105.9696 0003266 154.5939 257.5193  1.00268690 33201"
      },
      "geometry": {
        "type": "Point",
        "coordinates": [
          -102.0867300415609,
          0.0053197700479883795
        ]
      }
    },
    {
      "type": "Feature",
      "properties": {
        "norad_id": 41882,
        "name": "FENGYUN 4A",
        "group": "weather",
        "lat": 1.2914739734650174,
        "lon": 126.37115540718666,
        "alt_km": 35788.43060069531,
        "timestamp": "2025-12-09T18:55:16.881396+00:00",
        "meta_object_name": "FENGYUN 4A",
        "meta_object_id": "2016-077A",
        "meta_epoch": "2025-12-08T17:16:38.775936",
        "meta_mean_motion": 1.00275455,
        "meta_eccentricity": 0.00049335,
        "meta_inclination": 1.839,
        "meta_ra_of_asc_node": 82.4323,
        "meta_arg_of_pericenter": 143.079,
        "meta_mean_anomaly": 235.2066,
        "meta_ephemeris_type": 0,
        "meta_classification_type": "U",
        "meta_norad_cat_id": 41882,
        "meta_element_set_no": 999,
        "meta_rev_at_epoch": 3302,
        "meta_bstar": 0,
        "meta_mean_motion_dot": -3.55e-06,
        "meta_mean_motion_ddot": 0,
        "tle_line1": "1 41882U 16077A   25342.71989324 -.00000355  00000+0  00000+0 0  9995",
        "tle_line2": "2 41882   1.8390  82.4323 0004933 143.0790 235.2066  1.00275455 33022"
      },
      "geometry": {
        "type": "Point",
        "coordinates": [
          126.37115540718666,
          1.2914739734650174
        ]
      }
    },
    {
      "type": "Feature",
      "properties": {
        "norad_id": 41884,
        "name": "CYGFM05",
        "group": "weather",
        "lat": 34.91725685643459,
        "lon": 158.79519220978898,
        "alt_km": 414.7919418734209,
        "timestamp": "2025-12-09T18:55:16.881407+00:00",
        "meta_object_name": "CYGFM05",
        "meta_object_id": "2016-078A",
        "meta_epoch": "2025-12-09T13:52:51.612960",
        "meta_mean_motion": 15.47454273,
        "meta_eccentricity": 0.00097033,
        "meta_inclination": 34.9598,
        "meta_ra_of_asc_node": 67.7793,
        "meta_arg_of_pericenter": 153.8808,
        "meta_mean_anomaly": 206.2405,
        "meta_ephemeris_type": 0,
        "meta_classification_type": "U",
        "meta_norad_cat_id": 41884,
        "meta_element_set_no": 999,
        "meta_rev_at_epoch": 49927,
        "meta_bstar": 0.00049142457,
        "meta_mean_motion_dot": 0.0002606,
        "meta_mean_motion_ddot": 0,
        "tle_line1": "1 41884U 16078A   25343.57837515  .00026060  00000+0  49142-3 0  9991",
        "tle_line2": "2 41884  34.9598  67.7793 0009703 153.8808 206.2405 15.47454273499278"
      },
      "geometry": {
        "type": "Point",
        "coordinates": [
          158.79519220978898,
          34.91725685643459
        ]
      }
    },
    {
      "type": "Feature",
      "properties": {
        "norad_id": 41885,
        "name": "CYGFM04",
        "group": "weather",
        "lat": -28.855034056202353,
        "lon": -10.857298478925234,
        "alt_km": 420.877601456702,
        "timestamp": "2025-12-09T18:55:16.881417+00:00",
        "meta_object_name": "CYGFM04",
        "meta_object_id": "2016-078B",
        "meta_epoch": "2025-12-09T14:31:54.391296",
        "meta_mean_motion": 15.50154602,
        "meta_eccentricity": 0.00090666,
        "meta_inclination": 34.9356,
        "meta_ra_of_asc_node": 42.4688,
        "meta_arg_of_pericenter": 182.7404,
        "meta_mean_anomaly": 177.327,
        "meta_ephemeris_type": 0,
        "meta_classification_type": "U",
        "meta_norad_cat_id": 41885,
        "meta_element_set_no": 999,
        "meta_rev_at_epoch": 49945,
        "meta_bstar": 0.00051178136,
        "meta_mean_motion_dot": 0.00029862,
        "meta_mean_motion_ddot": 0,
        "tle_line1": "1 41885U 16078B   25343.60549064  .00029862  00000+0  51178-3 0  9990",
        "tle_line2": "2 41885  34.9356  42.4688 0009066 182.7404 177.3270 15.50154602499454"
      },
      "geometry": {
        "type": "Point",
        "coordinates": [
          -10.857298478925234,
          -28.855034056202353
        ]
      }
    },
    {
      "type": "Feature",
      "properties": {
        "norad_id": 41886,
        "name": "CYGFM02",
        "group": "weather",
        "lat": -29.406639968417885,
        "lon": -14.188113723021418,
        "alt_km": 417.3473778020125,
        "timestamp": "2025-12-09T18:55:16.881428+00:00",
        "meta_object_name": "CYGFM02",
        "meta_object_id": "2016-078C",
        "meta_epoch": "2025-12-09T12:59:53.720736",
        "meta_mean_motion": 15.51515915,
        "meta_eccentricity": 0.00107501,
        "meta_inclination": 34.9444,
        "meta_ra_of_asc_node": 41.2551,
        "meta_arg_of_pericenter": 181.5445,
        "meta_mean_anomaly": 178.5246,
        "meta_ephemeris_type": 0,
        "meta_classification_type": "U",
        "meta_norad_cat_id": 41886,
        "meta_element_set_no": 999,
        "meta_rev_at_epoch": 49957,
        "meta_bstar": 0.00051268919,
        "meta_mean_motion_dot": 0.00031436,
        "meta_mean_motion_ddot": 0,
        "tle_line1": "1 41886U 16078C   25343.54159399  .00031436  00000+0  51269-3 0  9993",
        "tle_line2": "2 41886  34.9444  41.2551 0010750 181.5445 178.5246 15.51515915499571"
      },
      "geometry": {
        "type": "Point",
        "coordinates": [
          -14.188113723021418,
          -29.406639968417885
        ]
      }
    },
    {
      "type": "Feature",
      "properties": {
        "norad_id": 41887,
        "name": "CYGFM01",
        "group": "weather",
        "lat": 25.96471880142626,
        "lon": -155.44402219339395,
        "alt_km": 411.45862044741534,
        "timestamp": "2025-12-09T18:55:16.881438+00:00",
        "meta_object_name": "CYGFM01",
        "meta_object_id": "2016-078D",
        "meta_epoch": "2025-12-09T15:16:01.554240",
        "meta_mean_motion": 15.48030549,
        "meta_eccentricity": 0.00092569,
        "meta_inclination": 34.9428,
        "meta_ra_of_asc_node": 69.7736,
        "meta_arg_of_pericenter": 146.0748,
        "meta_mean_anomaly": 214.0567,
        "meta_ephemeris_type": 0,
        "meta_classification_type": "U",
        "meta_norad_cat_id": 41887,
        "meta_element_set_no": 999,
        "meta_rev_at_epoch": 49922,
        "meta_bstar": 0.00050950059,
        "meta_mean_motion_dot": 0.00027573,
        "meta_mean_motion_ddot": 0,
        "tle_line1": "1 41887U 16078D   25343.63612910  .00027573  00000+0  50950-3 0  9990",
        "tle_line2": "2 41887  34.9428  69.7736 0009256 146.0748 214.0567 15.48030549499220"
      },
      "geometry": {
        "type": "Point",
        "coordinates": [
          -155.44402219339395,
          25.96471880142626
        ]
      }
    },
    {
      "type": "Feature",
      "properties": {
        "norad_id": 41888,
        "name": "CYGFM08",
        "group": "weather",
        "lat": 8.098760990420415,
        "lon": -139.95361708886617,
        "alt_km": 409.21476526115475,
        "timestamp": "2025-12-09T18:55:16.881450+00:00",
        "meta_object_name": "CYGFM08",
        "meta_object_id": "2016-078E",
        "meta_epoch": "2025-12-09T13:34:13.028448",
        "meta_mean_motion": 15.49223423,
        "meta_eccentricity": 0.00111355,
        "meta_inclination": 34.9464,
        "meta_ra_of_asc_node": 53.2643,
        "meta_arg_of_pericenter": 169.9594,
        "meta_mean_anomaly": 190.1352,
        "meta_ephemeris_type": 0,
        "meta_classification_type": "U",
        "meta_norad_cat_id": 41888,
        "meta_element_set_no": 999,
        "meta_rev_at_epoch": 49944,
        "meta_bstar": 0.00050551184,
        "meta_mean_motion_dot": 0.00028556,
        "meta_mean_motion_ddot": 0,
        "tle_line1": "1 41888U 16078E   25343.56542857  .00028556  00000+0  50551-3 0  9994",
        "tle_line2": "2 41888  34.9464  53.2643 0011135 169.9594 190.1352 15.49223423499444"
      },
      "geometry": {
        "type": "Point",
        "coordinates": [
          -139.95361708886617,
          8.098760990420415
        ]
      }
    }
  ]
}